[{"OBJECT_NAME":"TIANMU-1 10","OBJECT_ID":"2023-101D","EPOCH":"2026-03-09T23:06:46.939392","MEAN_MOTION":15.2921896,"ECCENTRICITY":0.00069292,"INCLINATION":97.2749,"RA_OF_ASC_NODE":122.1027,"ARG_OF_PERICENTER":133.6162,"MEAN_ANOMALY":226.5654,"EPHEMERIS_TYPE":0,"CLASSIFICATION_TYPE":"U","NORAD_CAT_ID":57402,"ELEMENT_SET_NO":999,"REV_AT_EPOCH":14647,"BSTAR":0.00032238884,"MEAN_MOTION_DOT":9.075e-5,"MEAN_MOTION_DDOT":0},{"OBJECT_NAME":"STARLINK-31699","OBJECT_ID":"2024-074T","EPOCH":"2026-03-09T03:39:50.243040","MEAN_MOTION":15.27587018,"ECCENTRICITY":6.68e-5,"INCLINATION":43.0013,"RA_OF_ASC_NODE":346.4327,"ARG_OF_PERICENTER":316.005,"MEAN_ANOMALY":44.0749,"EPHEMERIS_TYPE":0,"CLASSIFICATION_TYPE":"U","NORAD_CAT_ID":59551,"ELEMENT_SET_NO":999,"REV_AT_EPOCH":10593,"BSTAR":-9.8611676e-5,"MEAN_MOTION_DOT":-2.975e-5,"MEAN_MOTION_DDOT":0}]
